<?xml version="1.0" encoding="UTF-8"?><?xml-stylesheet type="text/xsl" href="//serenemedspas.com/main-sitemap.xsl"?>
<kml xmlns="http://www.opengis.net/kml/2.2" xmlns:atom="http://www.w3.org/2005/Atom">
	<Document>
		<name>Locations for Serene Med Spas</name>
		<open>1</open>
		<Folder>
			<atom:link href="https://serenemedspas.com" />
			<Placemark>
				<name><![CDATA[#1 Med Spa Barboursville: Serene Med Spa – Botox & Skincare - Serene Med Spas]]></name>
				<description><![CDATA[Med Spa Barboursville: Serene Med Spa offers expert Botox and skincare treatments. Serving Barboursville and Huntington with premium wellness services.]]></description>
				<address><![CDATA[1 Chateau Grove Ln, Barboursville, WV, 25504, USA]]></address>
				<phoneNumber><![CDATA[3045200461]]></phoneNumber>
				<atom:link href="https://serenemedspas.com/https://serenemedspas.com/locations//med-spa-barboursville/"/>
				<LookAt>
					<altitude>0</altitude>
					<range></range>
					<tilt>0</tilt>
				</LookAt>
				<Point>
				</Point>
			</Placemark>
		</Folder>
	</Document>
</kml>

<!-- XML Sitemap generated by Rank Math SEO Plugin (c) Rank Math - rankmath.com -->